{"type":"FeatureCollection","name":"ojos_5_3857","features":[{"type":"Feature","properties":{"pkuid":null,"cat":"ojo","notas":"El proyecto Puerto Barú amenaza con destruir buena parte de los manglares de David, ya sea durante su construcción o su operación.","prioridad":1,"nombre":"1"},"geometry":{"type":"Point","coordinates":[-82.3374237,8.3355989]}},{"type":"Feature","properties":{"pkuid":2,"cat":"Ojo","notas":"Punto de deforestación en el área de Rambala amenazando la conectividad","prioridad":3,"nombre":"1"},"geometry":{"type":"Point","coordinates":[-82.2001116,8.9084395]}},{"type":"Feature","properties":{"pkuid":4,"cat":"Ojo","notas":"El Parque Nacional Cerro Hoya es una fuente de biodiversidad y fundamental para la conectividad de la Península de Azuero.\n","prioridad":3,"nombre":"2"},"geometry":{"type":"Point","coordinates":[-80.7710203,7.2849324]}},{"type":"Feature","properties":{"pkuid":6,"cat":"Ojo","notas":"El bosque protector de San Lorenzo es la pieza más importante que mantiene la continuidad del Corredor Biológico Mesoamericano","prioridad":3,"nombre":"4"},"geometry":{"type":"Point","coordinates":[-79.9740657,9.2741087]}},{"type":"Feature","properties":{"pkuid":7,"cat":"Ojo","notas":"Las costas de Brujas y tierra adentro están perdiendo su bosque por la ganadería","prioridad":3,"nombre":"7"},"geometry":{"type":"Point","coordinates":[-78.4857434,8.5885003]}},{"type":"Feature","properties":{"pkuid":8,"cat":"Ojo","notas":"Entre las comarcas de Madugandi y Wargandi hay un espacio donde la ganadería está entrando, en el límite entre Panamá y Darién","prioridad":3,"nombre":"8"},"geometry":{"type":"Point","coordinates":[-78.1529083,8.9684732]}},{"type":"Feature","properties":{"pkuid":10,"cat":"Ojo","notas":"El arroz mecanizado de gran escala pone en peligro ell sistema de humedales de Matusagaratí.","prioridad":3,"nombre":"12"},"geometry":{"type":"Point","coordinates":[-77.8045164,8.1892851]}},{"type":"Feature","properties":{"pkuid":11,"cat":"Ojo","notas":"Frente de deforestación en Mortí que está detenido por la Reserva Hidrológica Serranía de Darién.","prioridad":3,"nombre":"9"},"geometry":{"type":"Point","coordinates":[-77.8931496,8.7430877]}},{"type":"Feature","properties":{"pkuid":13,"cat":"Ojo","notas":"El área de Garachiné hasta Sambú y comarca la ganadería es la causa principal de deforestación.","prioridad":3,"nombre":"10"},"geometry":{"type":"Point","coordinates":[-78.2719396,8.0121502]}},{"type":"Feature","properties":{"pkuid":15,"cat":"Ojo","notas":"En las islas del lago Gatún hay un importante paso de especies que cruzan el lago","prioridad":3,"nombre":"5"},"geometry":{"type":"Point","coordinates":[-79.8842316,9.1857697]}},{"type":"Feature","properties":{"pkuid":16,"cat":"Ojo","notas":"Frente de deforestación en Boca de Cupe.","prioridad":3,"nombre":"13"},"geometry":{"type":"Point","coordinates":[-77.5784136,8.0302568]}},{"type":"Feature","properties":{"pkuid":18,"cat":"ojo","notas":"En los alrededores de Unión Santeña la ganadería es causa importante de deforestación","prioridad":3,"nombre":"6"},"geometry":{"type":"Point","coordinates":[-78.629579,8.8709028]}},{"type":"Feature","properties":{"pkuid":19,"cat":"ojo","notas":"En Chepigana y alrededores la ganadería es la principal causa de deforestación.","prioridad":null,"nombre":"11"},"geometry":{"type":"Point","coordinates":[-78.0756674,8.26657]}},{"type":"Feature","properties":{"pkuid":21,"cat":"ojo","notas":"Minera Panamá, mina de cobre a cielo abierto, peligro por megaproyecto que amenaza con romper la conectividad","prioridad":null,"nombre":"3"},"geometry":{"type":"Point","coordinates":[-80.6484028,8.8640477]}}]}