{
"type": "FeatureCollection",
"name": "ojos_5_3857",
"crs": { "type": "name", "properties": { "name": "urn:ogc:def:crs:EPSG::3857" } },
"features": [
{ "type": "Feature", "properties": { "pkuid": null, "cat": "ojo", "notas": "El proyecto Puerto Barú amenaza con destruir buena parte de los manglares de David, ya sea durante su construcción o su operación.", "prioridad": 1, "nombre": "1" }, "geometry": { "type": "Point", "coordinates": [ -9165760.076635589823127, 931205.34691298508551 ] } },
{ "type": "Feature", "properties": { "pkuid": 2, "cat": "Ojo", "notas": "Punto de deforestación en el área de Rambala amenazando la conectividad", "prioridad": 3, "nombre": "1" }, "geometry": { "type": "Point", "coordinates": [ -9150474.563933908939362, 995702.85104412981309 ] } },
{ "type": "Feature", "properties": { "pkuid": 4, "cat": "Ojo", "notas": "El Parque Nacional Cerro Hoya es una fuente de biodiversidad y fundamental para la conectividad de la Península de Azuero.\n", "prioridad": 3, "nombre": "2" }, "geometry": { "type": "Point", "coordinates": [ -8991388.847300916910172, 813148.837766868877225 ] } },
{ "type": "Feature", "properties": { "pkuid": 6, "cat": "Ojo", "notas": "El bosque protector de San Lorenzo es la pieza más importante que mantiene la continuidad del Corredor Biológico Mesoamericano", "prioridad": 3, "nombre": "4" }, "geometry": { "type": "Point", "coordinates": [ -8902672.269840935245156, 1036926.887583183241077 ] } },
{ "type": "Feature", "properties": { "pkuid": 7, "cat": "Ojo", "notas": "Las costas de Brujas y tierra adentro están perdiendo su bosque por la ganadería", "prioridad": 3, "nombre": "7" }, "geometry": { "type": "Point", "coordinates": [ -8736992.98824517801404, 959668.08088607119862 ] } },
{ "type": "Feature", "properties": { "pkuid": 8, "cat": "Ojo", "notas": "Entre las comarcas de Madugandi y Wargandi hay un espacio donde la ganadería está entrando, en el límite entre Panamá y Darién", "prioridad": 3, "nombre": "8" }, "geometry": { "type": "Point", "coordinates": [ -8699941.955753980204463, 1002467.927320686983876 ] } },
{ "type": "Feature", "properties": { "pkuid": 10, "cat": "Ojo", "notas": "El arroz mecanizado de gran escala pone en peligro ell sistema de humedales de Matusagaratí.", "prioridad": 3, "nombre": "12" }, "geometry": { "type": "Point", "coordinates": [ -8661159.14839992672205, 914746.93255331274122 ] } },
{ "type": "Feature", "properties": { "pkuid": 11, "cat": "Ojo", "notas": "Frente de deforestación en Mortí que está detenido por la Reserva Hidrológica Serranía de Darién.", "prioridad": 3, "nombre": "9" }, "geometry": { "type": "Point", "coordinates": [ -8671025.746765919029713, 977075.397680523921736 ] } },
{ "type": "Feature", "properties": { "pkuid": 13, "cat": "Ojo", "notas": "El área de Garachiné hasta Sambú y comarca la ganadería es la causa principal de deforestación.", "prioridad": 3, "nombre": "10" }, "geometry": { "type": "Point", "coordinates": [ -8713192.460006669163704, 894829.612573839956895 ] } },
{ "type": "Feature", "properties": { "pkuid": 15, "cat": "Ojo", "notas": "En las islas del lago Gatún hay un importante paso de especies que cruzan el lago", "prioridad": 3, "nombre": "5" }, "geometry": { "type": "Point", "coordinates": [ -8892671.987854650244117, 1026964.037418400519527 ] } },
{ "type": "Feature", "properties": { "pkuid": 16, "cat": "Ojo", "notas": "Frente de deforestación en Boca de Cupe.", "prioridad": 3, "nombre": "13" }, "geometry": { "type": "Point", "coordinates": [ -8635989.496622575446963, 896865.146928596310318 ] } },
{ "type": "Feature", "properties": { "pkuid": 18, "cat": "ojo", "notas": "En los alrededores de Unión Santeña la ganadería es causa importante de deforestación", "prioridad": 3, "nombre": "6" }, "geometry": { "type": "Point", "coordinates": [ -8753004.697222368791699, 991473.472445624880493 ] } },
{ "type": "Feature", "properties": { "pkuid": 19, "cat": "ojo", "notas": "En Chepigana y alrededores la ganadería es la principal causa de deforestación.", "prioridad": null, "nombre": "11" }, "geometry": { "type": "Point", "coordinates": [ -8691343.533373443409801, 923439.721572966896929 ] } },
{ "type": "Feature", "properties": { "pkuid": 21, "cat": "ojo", "notas": "Minera Panamá, mina de cobre a cielo abierto, peligro por megaproyecto que amenaza con romper la conectividad", "prioridad": null, "nombre": "3" }, "geometry": { "type": "Point", "coordinates": [ -8977739.136435540392995, 990701.133863938390277 ] } }
]
}
